[{"OBJECT_NAME":"STARLINK-34739","OBJECT_ID":"2025-165L","EPOCH":"2026-03-09T18:01:24.829248","MEAN_MOTION":15.05645642,"ECCENTRICITY":0.00011746,"INCLINATION":97.602,"RA_OF_ASC_NODE":147.35,"ARG_OF_PERICENTER":27.7702,"MEAN_ANOMALY":332.3587,"EPHEMERIS_TYPE":0,"CLASSIFICATION_TYPE":"U","NORAD_CAT_ID":65066,"ELEMENT_SET_NO":999,"REV_AT_EPOCH":3480,"BSTAR":0.0004926159,"MEAN_MOTION_DOT":7.053e-5,"MEAN_MOTION_DDOT":0},{"OBJECT_NAME":"COSMOS 2251 DEB","OBJECT_ID":"1993-036HX","EPOCH":"2026-03-09T21:31:03.673056","MEAN_MOTION":15.04193551,"ECCENTRICITY":0.00046843,"INCLINATION":74.0171,"RA_OF_ASC_NODE":332.1487,"ARG_OF_PERICENTER":332.3762,"MEAN_ANOMALY":27.7177,"EPHEMERIS_TYPE":0,"CLASSIFICATION_TYPE":"U","NORAD_CAT_ID":34036,"ELEMENT_SET_NO":999,"REV_AT_EPOCH":89876,"BSTAR":0.0040391987,"MEAN_MOTION_DOT":0.00056541,"MEAN_MOTION_DDOT":0}]
